{
  "norad_id": 67047,
  "name": "STARLINK-35779",
  "history": [
    {
      "epoch": "2026-03-28T20:53:54.604032Z",
      "apogee_km": 485.0727176816572,
      "perigee_km": 481.01432940198083,
      "latitude_deg": -2.81825667571388e-06,
      "longitude_deg": 149.90927333593663,
      "height_km": 482.63761495896165,
      "semi_major_axis_km": 6861.180523541819,
      "eccentricity": 0.00029575,
      "inclination_deg": 42.9994,
      "raan_deg": 289.6718,
      "arg_perigee_deg": 275.1936,
      "mean_anomaly_deg": 84.8578,
      "mean_motion_rev_day": 15.27581861
    }
  ]
}